{"type": "FeatureCollection", "features": [ {"type": "Feature", "properties": {"norad_id": 66815, "name": "STARLINK-35985", "group": "last-30-days", "lat": 14.818783846278276, "lon": 47.987547625558165, "alt_km": 300.6104982728875, "timestamp": "2025-12-13T22:39:28.445590+00:00", "meta": {"OBJECT_NAME": "STARLINK-35985", "OBJECT_ID": "2025-278AA", "EPOCH": "2025-12-12T18:52:41.807136", "MEAN_MOTION": 15.89981059, "ECCENTRICITY": 0.00144492, "INCLINATION": 42.9985, "RA_OF_ASC_NODE": 251.6744, "ARG_OF_PERICENTER": 289.6758, "MEAN_ANOMALY": 70.2558, "EPHEMERIS_TYPE": 0, "CLASSIFICATION_TYPE": "U", "NORAD_CAT_ID": 66815, "ELEMENT_SET_NO": 999, "REV_AT_EPOCH": 305, "BSTAR": 0.0028507856, "MEAN_MOTION_DOT": 0.00887373, "MEAN_MOTION_DDOT": 0.00032777577}, "tle": {"line1": "1 66815U 25278AA  25346.78659499  .00887373  32778-3  28508-2 0  9998", "line2": "2 66815  42.9985 251.6744 0014449 289.6758  70.2558 15.89981059  3051"}}, "geometry": {"type": "Point", "coordinates": [47.987547625558165, 14.818783846278276]}}, {"type": "Feature", "properties": {"norad_id": 66816, "name": "STARLINK-36098", "group": "last-30-days", "lat": 32.97266970406122, "lon": 20.435647617659413, "alt_km": 311.22685546975845, "timestamp": "2025-12-13T22:39:28.445600+00:00", "meta": {"OBJECT_NAME": "STARLINK-36098", "OBJECT_ID": "2025-278AB", "EPOCH": "2025-12-13T03:59:19.384512", "MEAN_MOTION": 15.8641786, "ECCENTRICITY": 0.00030899, "INCLINATION": 42.9975, "RA_OF_ASC_NODE": 249.3605, "ARG_OF_PERICENTER": 273.4352, "MEAN_ANOMALY": 86.6168, "EPHEMERIS_TYPE": 0, "CLASSIFICATION_TYPE": "U", "NORAD_CAT_ID": 66816, "ELEMENT_SET_NO": 999, "REV_AT_EPOCH": 190, "BSTAR": -0.0019922667, "MEAN_MOTION_DOT": -0.00491007, "MEAN_MOTION_DDOT": 0}, "tle": {"line1": "1 66816U 25278AB  25347.16619658 -.00491007  00000+0 -19923-2 0  9992", "line2": "2 66816  42.9975 249.3605 0003089 273.4352  86.6168 15.86417860  1901"}}, "geometry": {"type": "Point", "coordinates": [20.435647617659413, 32.97266970406122]}}, {"type": "Feature", "properties": {"norad_id": 66817, "name": "STARLINK-35995", "group": "last-30-days", "lat": 30.569857526523233, "lon": 25.208116323418658, "alt_km": 307.7990423684914, "timestamp": "2025-12-13T22:39:28.445611+00:00", "meta": {"OBJECT_NAME": "STARLINK-35995", "OBJECT_ID": "2025-278AC", "EPOCH": "2025-12-13T03:58:44.760576", "MEAN_MOTION": 15.86681031, "ECCENTRICITY": 0.00046485, "INCLINATION": 42.9976, "RA_OF_ASC_NODE": 249.3573, "ARG_OF_PERICENTER": 265.5675, "MEAN_ANOMALY": 94.4668, "EPHEMERIS_TYPE": 0, "CLASSIFICATION_TYPE": "U", "NORAD_CAT_ID": 66817, "ELEMENT_SET_NO": 999, "REV_AT_EPOCH": 190, "BSTAR": 0.0010423355, "MEAN_MOTION_DOT": 0.0028303, "MEAN_MOTION_DDOT": 0}, "tle": {"line1": "1 66817U 25278AC  25347.16579584  .00283030  00000+0  10423-2 0  9995", "line2": "2 66817  42.9976 249.3573 0004648 265.5675  94.4668 15.86681031  1904"}}, "geometry": {"type": "Point", "coordinates": [25.208116323418658, 30.569857526523233]}}, {"type": "Feature", "properties": {"norad_id": 66818, "name": "STARLINK-35994", "group": "last-30-days", "lat": 32.82583380537713, "lon": 20.745968601835635, "alt_km": 310.4462581021344, "timestamp": "2025-12-13T22:39:28.445622+00:00", "meta": {"OBJECT_NAME": "STARLINK-35994", "OBJECT_ID": "2025-278AD", "EPOCH": "2025-12-13T03:59:19.671360", "MEAN_MOTION": 15.86415489, "ECCENTRICITY": 0.00028361, "INCLINATION": 42.9975, "RA_OF_ASC_NODE": 249.361, "ARG_OF_PERICENTER": 274.2297, "MEAN_ANOMALY": 85.8252, "EPHEMERIS_TYPE": 0, "CLASSIFICATION_TYPE": "U", "NORAD_CAT_ID": 66818, "ELEMENT_SET_NO": 999, "REV_AT_EPOCH": 190, "BSTAR": -0.0014167145, "MEAN_MOTION_DOT": -0.00354579, "MEAN_MOTION_DDOT": 0}, "tle": {"line1": "1 66818U 25278AD  25347.16619990 -.00354579  00000+0 -14167-2 0  9990", "line2": "2 66818  42.9975 249.3610 0002836 274.2297  85.8252 15.86415489  1905"}}, "geometry": {"type": "Point", "coordinates": [20.745968601835635, 32.82583380537713]}}, {"type": "Feature", "properties": {"norad_id": 66819, "name": "STARLINK-35989", "group": "last-30-days", "lat": 26.358012531091497, "lon": 32.40680555872926, "alt_km": 321.76903932348887, "timestamp": "2025-12-13T22:39:28.445633+00:00", "meta": {"OBJECT_NAME": "STARLINK-35989", "OBJECT_ID": "2025-278AE", "EPOCH": "2025-12-13T02:25:59.508480", "MEAN_MOTION": 15.87984782, "ECCENTRICITY": 0.00193199, "INCLINATION": 42.9981, "RA_OF_ASC_NODE": 249.7349, "ARG_OF_PERICENTER": 275.1685, "MEAN_ANOMALY": 84.6984, "EPHEMERIS_TYPE": 0, "CLASSIFICATION_TYPE": "U", "NORAD_CAT_ID": 66819, "ELEMENT_SET_NO": 999, "REV_AT_EPOCH": 189, "BSTAR": -0.0055008218, "MEAN_MOTION_DOT": -0.01562027, "MEAN_MOTION_DDOT": 0.00065817872}, "tle": {"line1": "1 66819U 25278AE  25347.10138320 -.01562027  65818-3 -55008-2 0  9999", "line2": "2 66819  42.9981 249.7349 0019319 275.1685  84.6984 15.87984782  1896"}}, "geometry": {"type": "Point", "coordinates": [32.40680555872926, 26.358012531091497]}}, {"type": "Feature", "properties": {"norad_id": 66820, "name": "KOMPSAT-7", "group": "last-30-days", "lat": 0.15305656351580396, "lon": -66.23367599410123, "alt_km": 577.7150199159614, "timestamp": "2025-12-13T22:39:28.445647+00:00", "meta": {"OBJECT_NAME": "KOMPSAT-7", "OBJECT_ID": "2025-279A", "EPOCH": "2025-12-13T06:38:09.996576", "MEAN_MOTION": 14.98956981, "ECCENTRICITY": 0.00087179, "INCLINATION": 97.6411, "RA_OF_ASC_NODE": 293.1325, "ARG_OF_PERICENTER": 223.3603, "MEAN_ANOMALY": 136.6935, "EPHEMERIS_TYPE": 0, "CLASSIFICATION_TYPE": "U", "NORAD_CAT_ID": 66820, "ELEMENT_SET_NO": 999, "REV_AT_EPOCH": 173, "BSTAR": 0.00037147141, "MEAN_MOTION_DOT": 4.441e-05, "MEAN_MOTION_DDOT": 0}, "tle": {"line1": "1 66820U 25279A   25347.27650459  .00004441  00000+0  37147-3 0  9993", "line2": "2 66820  97.6411 293.1325 0008717 223.3603 136.6935 14.98956981  1733"}}, "geometry": {"type": "Point", "coordinates": [-66.23367599410123, 0.15305656351580396]}}, {"type": "Feature", "properties": {"norad_id": 66821, "name": "STARLINK-35966", "group": "last-30-days", "lat": 5.9622278050371875, "lon": -162.40755860303912, "alt_km": 338.5285409088874, "timestamp": "2025-12-13T22:39:28.445658+00:00", "meta": {"OBJECT_NAME": "STARLINK-35966", "OBJECT_ID": "2025-280A", "EPOCH": "2025-12-13T07:25:02.611200", "MEAN_MOTION": 15.78418618, "ECCENTRICITY": 0.00036963, "INCLINATION": 69.9926, "RA_OF_ASC_NODE": 197.218, "ARG_OF_PERICENTER": 286.2434, "MEAN_ANOMALY": 73.8359, "EPHEMERIS_TYPE": 0, "CLASSIFICATION_TYPE": "U", "NORAD_CAT_ID": 66821, "ELEMENT_SET_NO": 999, "REV_AT_EPOCH": 301, "BSTAR": -0.0037794284, "MEAN_MOTION_DOT": -0.00611112, "MEAN_MOTION_DDOT": 0}, "tle": {"line1": "1 66821U 25280A   25347.30905800 -.00611112  00000+0 -37794-2 0  9991", "line2": "2 66821  69.9926 197.2180 0003696 286.2434  73.8359 15.78418618  3015"}}, "geometry": {"type": "Point", "coordinates": [-162.40755860303912, 5.9622278050371875]}}, {"type": "Feature", "properties": {"norad_id": 66822, "name": "STARLINK-35958", "group": "last-30-days", "lat": 7.859128197163813, "lon": -161.70770185869063, "alt_km": 338.42974359876007, "timestamp": "2025-12-13T22:39:28.445670+00:00", "meta": {"OBJECT_NAME": "STARLINK-35958", "OBJECT_ID": "2025-280B", "EPOCH": "2025-12-13T07:24:33.109056", "MEAN_MOTION": 15.78443914, "ECCENTRICITY": 0.00038389, "INCLINATION": 69.9924, "RA_OF_ASC_NODE": 197.2168, "ARG_OF_PERICENTER": 281.2228, "MEAN_ANOMALY": 78.8541, "EPHEMERIS_TYPE": 0, "CLASSIFICATION_TYPE": "U", "NORAD_CAT_ID": 66822, "ELEMENT_SET_NO": 999, "REV_AT_EPOCH": 301, "BSTAR": -0.0036793441, "MEAN_MOTION_DOT": -0.00596639, "MEAN_MOTION_DDOT": 0}, "tle": {"line1": "1 66822U 25280B   25347.30871654 -.00596639  00000+0 -36793-2 0  9995", "line2": "2 66822  69.9924 197.2168 0003838 281.2228  78.8541 15.78443914  3019"}}, "geometry": {"type": "Point", "coordinates": [-161.70770185869063, 7.859128197163813]}}, {"type": "Feature", "properties": {"norad_id": 66823, "name": "STARLINK-35957", "group": "last-30-days", "lat": 9.52510565653975, "lon": -161.0876695768682, "alt_km": 338.24684895225437, "timestamp": "2025-12-13T22:39:28.445681+00:00", "meta": {"OBJECT_NAME": "STARLINK-35957", "OBJECT_ID": "2025-280C", "EPOCH": "2025-12-13T07:24:03.287232", "MEAN_MOTION": 15.7841229, "ECCENTRICITY": 0.00029253, "INCLINATION": 69.9931, "RA_OF_ASC_NODE": 197.2154, "ARG_OF_PERICENTER": 292.1559, "MEAN_ANOMALY": 67.933, "EPHEMERIS_TYPE": 0, "CLASSIFICATION_TYPE": "U", "NORAD_CAT_ID": 66823, "ELEMENT_SET_NO": 999, "REV_AT_EPOCH": 301, "BSTAR": -0.0041443241, "MEAN_MOTION_DOT": -0.00665505, "MEAN_MOTION_DDOT": 0}, "tle": {"line1": "1 66823U 25280C   25347.30837138 -.00665505  00000+0 -41443-2 0  9992", "line2": "2 66823  69.9931 197.2154 0002925 292.1559  67.9330 15.78412290  3015"}}, "geometry": {"type": "Point", "coordinates": [-161.0876695768682, 9.52510565653975]}}, {"type": "Feature", "properties": {"norad_id": 66824, "name": "STARLINK-35896", "group": "last-30-days", "lat": 12.181303762481036, "lon": -160.08472670301748, "alt_km": 338.37348087992723, "timestamp": "2025-12-13T22:39:28.445691+00:00", "meta": {"OBJECT_NAME": "STARLINK-35896", "OBJECT_ID": "2025-280D", "EPOCH": "2025-12-13T04:20:59.538624", "MEAN_MOTION": 15.78881277, "ECCENTRICITY": 0.00039504, "INCLINATION": 69.9932, "RA_OF_ASC_NODE": 197.5749, "ARG_OF_PERICENTER": 269.5598, "MEAN_ANOMALY": 90.515, "EPHEMERIS_TYPE": 0, "CLASSIFICATION_TYPE": "U", "NORAD_CAT_ID": 66824, "ELEMENT_SET_NO": 999, "REV_AT_EPOCH": 299, "BSTAR": -0.0044799056, "MEAN_MOTION_DOT": -0.00729751, "MEAN_MOTION_DDOT": 0}, "tle": {"line1": "1 66824U 25280D   25347.18124466 -.00729751  00000+0 -44799-2 0  9993", "line2": "2 66824  69.9932 197.5749 0003950 269.5598  90.5150 15.78881277  2993"}}, "geometry": {"type": "Point", "coordinates": [-160.08472670301748, 12.181303762481036]}}]}